{"fetched_at":"2026-07-19T17:31:11.372Z","source":"https://celestrak.org/NORAD/elements/gp.php?GROUP=planet&FORMAT=JSON","constellation":"superdove","records":[{"OBJECT_NAME":"FLOCK 4BE-17","OBJECT_ID":"2024-149AA","EPOCH":"2026-07-19T04:25:50.993472","CLASSIFICATION_TYPE":"U","MEAN_MOTION":15.40645191,"ECCENTRICITY":0.00045603,"INCLINATION":97.376,"RA_OF_ASC_NODE":283.8249,"ARG_OF_PERICENTER":136.3181,"MEAN_ANOMALY":223.8427,"EPHEMERIS_TYPE":0,"NORAD_CAT_ID":60492,"ELEMENT_SET_NO":999,"REV_AT_EPOCH":10718,"BSTAR":0.000230112,"MEAN_MOTION_DOT":0.00009296,"MEAN_MOTION_DDOT":0},{"OBJECT_NAME":"FLOCK 4BE-22","OBJECT_ID":"2024-149AC","EPOCH":"2026-07-18T17:56:47.497344","CLASSIFICATION_TYPE":"U","MEAN_MOTION":15.42056124,"ECCENTRICITY":0.00049832,"INCLINATION":97.372,"RA_OF_ASC_NODE":283.6272,"ARG_OF_PERICENTER":144.1008,"MEAN_ANOMALY":216.0574,"EPHEMERIS_TYPE":0,"NORAD_CAT_ID":60494,"ELEMENT_SET_NO":999,"REV_AT_EPOCH":10716,"BSTAR":0.00022739685,"MEAN_MOTION_DOT":0.00009628,"MEAN_MOTION_DDOT":0},{"OBJECT_NAME":"FLOCK 4BE-34","OBJECT_ID":"2024-149AD","EPOCH":"2026-07-19T05:16:19.107840","CLASSIFICATION_TYPE":"U","MEAN_MOTION":15.42024537,"ECCENTRICITY":0.00051257,"INCLINATION":97.3773,"RA_OF_ASC_NODE":284.9461,"ARG_OF_PERICENTER":150.4408,"MEAN_ANOMALY":209.713,"EPHEMERIS_TYPE":0,"NORAD_CAT_ID":60495,"ELEMENT_SET_NO":999,"REV_AT_EPOCH":10726,"BSTAR":0.00020582709,"MEAN_MOTION_DOT":0.00008697,"MEAN_MOTION_DDOT":0},{"OBJECT_NAME":"FLOCK 4BE-32","OBJECT_ID":"2024-149AF","EPOCH":"2026-07-19T05:32:17.045376","CLASSIFICATION_TYPE":"U","MEAN_MOTION":15.43173484,"ECCENTRICITY":0.00052375,"INCLINATION":97.3708,"RA_OF_ASC_NODE":284.5269,"ARG_OF_PERICENTER":148.004,"MEAN_ANOMALY":212.1526,"EPHEMERIS_TYPE":0,"NORAD_CAT_ID":60497,"ELEMENT_SET_NO":999,"REV_AT_EPOCH":10727,"BSTAR":0.00024161303,"MEAN_MOTION_DOT":0.00010629,"MEAN_MOTION_DDOT":0},{"OBJECT_NAME":"FLOCK 4BE-11","OBJECT_ID":"2024-149AK","EPOCH":"2026-07-19T05:00:32.456736","CLASSIFICATION_TYPE":"U","MEAN_MOTION":15.4396422,"ECCENTRICITY":0.00052641,"INCLINATION":97.3689,"RA_OF_ASC_NODE":284.7648,"ARG_OF_PERICENTER":147.6031,"MEAN_ANOMALY":212.5542,"EPHEMERIS_TYPE":0,"NORAD_CAT_ID":60501,"ELEMENT_SET_NO":999,"REV_AT_EPOCH":10729,"BSTAR":0.00023002581,"MEAN_MOTION_DOT":0.00010389,"MEAN_MOTION_DDOT":0},{"OBJECT_NAME":"FLOCK 4BE-24","OBJECT_ID":"2024-149AP","EPOCH":"2026-07-19T04:36:11.878560","CLASSIFICATION_TYPE":"U","MEAN_MOTION":15.44197712,"ECCENTRICITY":0.00053187,"INCLINATION":97.3699,"RA_OF_ASC_NODE":285.0186,"ARG_OF_PERICENTER":158.0628,"MEAN_ANOMALY":202.0849,"EPHEMERIS_TYPE":0,"NORAD_CAT_ID":60505,"ELEMENT_SET_NO":999,"REV_AT_EPOCH":10730,"BSTAR":0.00025241725,"MEAN_MOTION_DOT":0.00011501,"MEAN_MOTION_DDOT":0},{"OBJECT_NAME":"FLOCK 4BE-29","OBJECT_ID":"2024-149AT","EPOCH":"2026-07-19T05:51:03.139776","CLASSIFICATION_TYPE":"U","MEAN_MOTION":15.45689375,"ECCENTRICITY":0.00038227,"INCLINATION":97.3802,"RA_OF_ASC_NODE":286.6292,"ARG_OF_PERICENTER":166.9043,"MEAN_ANOMALY":193.2307,"EPHEMERIS_TYPE":0,"NORAD_CAT_ID":60509,"ELEMENT_SET_NO":999,"REV_AT_EPOCH":10736,"BSTAR":0.00049999925,"MEAN_MOTION_DOT":0.0002409,"MEAN_MOTION_DDOT":0},{"OBJECT_NAME":"FLOCK 4BE-2","OBJECT_ID":"2024-149AV","EPOCH":"2026-07-19T05:52:03.955008","CLASSIFICATION_TYPE":"U","MEAN_MOTION":15.56239732,"ECCENTRICITY":0.00054936,"INCLINATION":97.3816,"RA_OF_ASC_NODE":288.5401,"ARG_OF_PERICENTER":162.2155,"MEAN_ANOMALY":197.9293,"EPHEMERIS_TYPE":0,"NORAD_CAT_ID":60511,"ELEMENT_SET_NO":999,"REV_AT_EPOCH":10748,"BSTAR":0.00058129692,"MEAN_MOTION_DOT":0.00040851,"MEAN_MOTION_DDOT":0},{"OBJECT_NAME":"FLOCK 4BE-13","OBJECT_ID":"2024-149AW","EPOCH":"2026-07-19T04:57:38.677824","CLASSIFICATION_TYPE":"U","MEAN_MOTION":15.42682912,"ECCENTRICITY":0.00053763,"INCLINATION":97.3708,"RA_OF_ASC_NODE":284.9682,"ARG_OF_PERICENTER":144.2338,"MEAN_ANOMALY":215.927,"EPHEMERIS_TYPE":0,"NORAD_CAT_ID":60512,"ELEMENT_SET_NO":999,"REV_AT_EPOCH":10730,"BSTAR":0.00017938624,"MEAN_MOTION_DOT":0.00007737,"MEAN_MOTION_DDOT":0},{"OBJECT_NAME":"FLOCK 4BE-27","OBJECT_ID":"2024-149AX","EPOCH":"2026-07-19T04:59:29.957568","CLASSIFICATION_TYPE":"U","MEAN_MOTION":15.34958643,"ECCENTRICITY":0.00043262,"INCLINATION":97.3817,"RA_OF_ASC_NODE":282.085,"ARG_OF_PERICENTER":169.2942,"MEAN_ANOMALY":190.8394,"EPHEMERIS_TYPE":0,"NORAD_CAT_ID":60513,"ELEMENT_SET_NO":999,"REV_AT_EPOCH":10705,"BSTAR":0.00014716569,"MEAN_MOTION_DOT":0.0000491,"MEAN_MOTION_DDOT":0},{"OBJECT_NAME":"FLOCK 4BE-9","OBJECT_ID":"2024-149AY","EPOCH":"2026-07-19T05:27:38.623104","CLASSIFICATION_TYPE":"U","MEAN_MOTION":15.417002,"ECCENTRICITY":0.00039547,"INCLINATION":97.3783,"RA_OF_ASC_NODE":284.8297,"ARG_OF_PERICENTER":160.537,"MEAN_ANOMALY":199.6029,"EPHEMERIS_TYPE":0,"NORAD_CAT_ID":60514,"ELEMENT_SET_NO":999,"REV_AT_EPOCH":10725,"BSTAR":0.0002650676,"MEAN_MOTION_DOT":0.00011105,"MEAN_MOTION_DDOT":0},{"OBJECT_NAME":"FLOCK 4BE-6","OBJECT_ID":"2024-149BA","EPOCH":"2026-07-19T05:13:08.820480","CLASSIFICATION_TYPE":"U","MEAN_MOTION":15.40384095,"ECCENTRICITY":0.00046981,"INCLINATION":97.3778,"RA_OF_ASC_NODE":284.1153,"ARG_OF_PERICENTER":161.5521,"MEAN_ANOMALY":198.5896,"EPHEMERIS_TYPE":0,"NORAD_CAT_ID":60516,"ELEMENT_SET_NO":999,"REV_AT_EPOCH":10720,"BSTAR":0.00019750187,"MEAN_MOTION_DOT":0.00007897,"MEAN_MOTION_DDOT":0},{"OBJECT_NAME":"FLOCK 4BE-14","OBJECT_ID":"2024-149BB","EPOCH":"2026-07-19T04:05:19.497984","CLASSIFICATION_TYPE":"U","MEAN_MOTION":15.41933607,"ECCENTRICITY":0.00056939,"INCLINATION":97.3684,"RA_OF_ASC_NODE":284.2356,"ARG_OF_PERICENTER":164.5939,"MEAN_ANOMALY":195.5483,"EPHEMERIS_TYPE":0,"NORAD_CAT_ID":60517,"ELEMENT_SET_NO":999,"REV_AT_EPOCH":10725,"BSTAR":0.00022714567,"MEAN_MOTION_DOT":0.0000958,"MEAN_MOTION_DDOT":0},{"OBJECT_NAME":"FLOCK 4BE-1","OBJECT_ID":"2024-149BC","EPOCH":"2026-07-19T05:12:53.440416","CLASSIFICATION_TYPE":"U","MEAN_MOTION":15.43596417,"ECCENTRICITY":0.0005359,"INCLINATION":97.3772,"RA_OF_ASC_NODE":285.6767,"ARG_OF_PERICENTER":163.7333,"MEAN_ANOMALY":196.4088,"EPHEMERIS_TYPE":0,"NORAD_CAT_ID":60518,"ELEMENT_SET_NO":999,"REV_AT_EPOCH":10731,"BSTAR":0.00021798112,"MEAN_MOTION_DOT":0.00009717,"MEAN_MOTION_DDOT":0},{"OBJECT_NAME":"FLOCK 4BE-28","OBJECT_ID":"2024-149BD","EPOCH":"2026-07-19T04:19:36.380352","CLASSIFICATION_TYPE":"U","MEAN_MOTION":15.46504273,"ECCENTRICITY":0.00054714,"INCLINATION":97.3736,"RA_OF_ASC_NODE":286.4702,"ARG_OF_PERICENTER":163.8906,"MEAN_ANOMALY":196.2518,"EPHEMERIS_TYPE":0,"NORAD_CAT_ID":60519,"ELEMENT_SET_NO":999,"REV_AT_EPOCH":10738,"BSTAR":0.00050188209,"MEAN_MOTION_DOT":0.00024875,"MEAN_MOTION_DDOT":0},{"OBJECT_NAME":"FLOCK 4BE-5","OBJECT_ID":"2024-149CV","EPOCH":"2026-07-19T05:46:44.959296","CLASSIFICATION_TYPE":"U","MEAN_MOTION":15.41118492,"ECCENTRICITY":0.00043479,"INCLINATION":97.3834,"RA_OF_ASC_NODE":284.5679,"ARG_OF_PERICENTER":160.343,"MEAN_ANOMALY":199.7985,"EPHEMERIS_TYPE":0,"NORAD_CAT_ID":60559,"ELEMENT_SET_NO":999,"REV_AT_EPOCH":10721,"BSTAR":0.00021393382,"MEAN_MOTION_DOT":0.00008772,"MEAN_MOTION_DDOT":0}]}
