FLOCK 4BE-17            
1 60492U 24149AA  26200.18461798  .00009296  00000+0  23011-3 0  9990
2 60492  97.3760 283.8249 0004560 136.3181 223.8427 15.40645191107180
FLOCK 4BE-22            
1 60494U 24149AC  26199.74777196  .00009628  00000+0  22740-3 0  9990
2 60494  97.3720 283.6272 0004983 144.1008 216.0574 15.42056124107165
FLOCK 4BE-34            
1 60495U 24149AD  26200.21966560  .00008697  00000+0  20583-3 0  9999
2 60495  97.3773 284.9461 0005125 150.4408 209.7130 15.42024537107262
FLOCK 4BE-32            
1 60497U 24149AF  26200.23075284  .00010629  00000+0  24161-3 0  9991
2 60497  97.3708 284.5269 0005237 148.0040 212.1526 15.43173484107278
FLOCK 4BE-11            
1 60501U 24149AK  26200.20870899  .00010389  00000+0  23003-3 0  9996
2 60501  97.3689 284.7648 0005264 147.6031 212.5542 15.43964220107290
FLOCK 4BE-24            
1 60505U 24149AP  26200.19180415  .00011501  00000+0  25242-3 0  9990
2 60505  97.3699 285.0186 0005318 158.0628 202.0849 15.44197712107305
FLOCK 4BE-29            
1 60509U 24149AT  26200.24378634  .00024090  00000+0  50000-3 0  9999
2 60509  97.3802 286.6292 0003822 166.9043 193.2307 15.45689375107365
FLOCK 4BE-2             
1 60511U 24149AV  26200.24449022  .00040851  00000+0  58130-3 0  9997
2 60511  97.3816 288.5401 0005493 162.2155 197.9293 15.56239732107483
FLOCK 4BE-13            
1 60512U 24149AW  26200.20669766  .00007737  00000+0  17939-3 0  9991
2 60512  97.3708 284.9682 0005376 144.2338 215.9270 15.42682912107302
FLOCK 4BE-27            
1 60513U 24149AX  26200.20798562  .00004910  00000+0  14717-3 0  9990
2 60513  97.3817 282.0850 0004326 169.2942 190.8394 15.34958643107050
FLOCK 4BE-9             
1 60514U 24149AY  26200.22753036  .00011105  00000+0  26507-3 0  9994
2 60514  97.3783 284.8297 0003954 160.5370 199.6029 15.41700200107259
FLOCK 4BE-6             
1 60516U 24149BA  26200.21746320  .00007897  00000+0  19750-3 0  9998
2 60516  97.3778 284.1153 0004698 161.5521 198.5896 15.40384095107208
FLOCK 4BE-14            
1 60517U 24149BB  26200.17036456  .00009580  00000+0  22715-3 0  9992
2 60517  97.3684 284.2356 0005693 164.5939 195.5483 15.41933607107257
FLOCK 4BE-1             
1 60518U 24149BC  26200.21728519  .00009717  00000+0  21798-3 0  9998
2 60518  97.3772 285.6767 0005359 163.7333 196.4088 15.43596417107319
FLOCK 4BE-28            
1 60519U 24149BD  26200.18028218  .00024875  00000+0  50188-3 0  9991
2 60519  97.3736 286.4702 0005471 163.8906 196.2518 15.46504273107385
FLOCK 4BE-5             
1 60559U 24149CV  26200.24079814  .00008772  00000+0  21393-3 0  9994
2 60559  97.3834 284.5679 0004347 160.3430 199.7985 15.41118492107212
